CCSDS_OMM_VERS = 2.0
CREATION_DATE  = 
ORIGINATOR     = 

OBJECT_NAME    = IDEFIX & ARIANE 42P R/B
OBJECT_ID      = 2002-021B
CENTER_NAME    = EARTH
REF_FRAME      = TEME
TIME_SYSTEM    = UTC
MEAN_ELEMENT_THEORY = SGP/SGP4

EPOCH          = 2026-01-08T10:24:28.956672
MEAN_MOTION    = 14.30974958
ECCENTRICITY   = .0012109
INCLINATION    = 98.5815
RA_OF_ASC_NODE = 307.7825
ARG_OF_PERICENTER = 10.4266
MEAN_ANOMALY   = 349.7165

EPHEMERIS_TYPE = 0
CLASSIFICATION_TYPE = U
NORAD_CAT_ID   = 27422
ELEMENT_SET_NO = 999
REV_AT_EPOCH   = 23540
BSTAR          = .16551E-3
MEAN_MOTION_DOT = .392E-5
MEAN_MOTION_DDOT = 0

CCSDS_OMM_VERS = 2.0
CREATION_DATE  = 
ORIGINATOR     = 

OBJECT_NAME    = AQUA
OBJECT_ID      = 2002-022A
CENTER_NAME    = EARTH
REF_FRAME      = TEME
TIME_SYSTEM    = UTC
MEAN_ELEMENT_THEORY = SGP/SGP4

EPOCH          = 2026-01-04T23:13:44.480352
MEAN_MOTION    = 14.61798176
ECCENTRICITY   = .00020022
INCLINATION    = 98.4069
RA_OF_ASC_NODE = 331.2279
ARG_OF_PERICENTER = 90.2377
MEAN_ANOMALY   = 0.6092

EPHEMERIS_TYPE = 0
CLASSIFICATION_TYPE = U
NORAD_CAT_ID   = 27424
ELEMENT_SET_NO = 999
REV_AT_EPOCH   = 25942
BSTAR          = .32996806E-3
MEAN_MOTION_DOT = .1598E-4
MEAN_MOTION_DDOT = 0

CCSDS_OMM_VERS = 2.0
CREATION_DATE  = 
ORIGINATOR     = 

OBJECT_NAME    = CZ-4B R/B
OBJECT_ID      = 2002-024C
CENTER_NAME    = EARTH
REF_FRAME      = TEME
TIME_SYSTEM    = UTC
MEAN_ELEMENT_THEORY = SGP/SGP4

EPOCH          = 2026-01-08T08:57:34.551648
MEAN_MOTION    = 14.14534718
ECCENTRICITY   = .0049994
INCLINATION    = 98.8957
RA_OF_ASC_NODE = 62.0469
ARG_OF_PERICENTER = 193.2831
MEAN_ANOMALY   = 177.9577

EPHEMERIS_TYPE = 0
CLASSIFICATION_TYPE = U
NORAD_CAT_ID   = 27432
ELEMENT_SET_NO = 999
REV_AT_EPOCH   = 22071
BSTAR          = .5436E-4
MEAN_MOTION_DOT = .61E-6
MEAN_MOTION_DDOT = 0

CCSDS_OMM_VERS = 2.0
CREATION_DATE  = 
ORIGINATOR     = 

OBJECT_NAME    = MIDORI II (ADEOS-II)
OBJECT_ID      = 2002-056A
CENTER_NAME    = EARTH
REF_FRAME      = TEME
TIME_SYSTEM    = UTC
MEAN_ELEMENT_THEORY = SGP/SGP4

EPOCH          = 2026-01-08T11:00:15.549120
MEAN_MOTION    = 14.29230885
ECCENTRICITY   = .0001448
INCLINATION    = 98.7672
RA_OF_ASC_NODE = 326.5602
ARG_OF_PERICENTER = 127.7302
MEAN_ANOMALY   = 232.4010

EPHEMERIS_TYPE = 0
CLASSIFICATION_TYPE = U
NORAD_CAT_ID   = 27597
ELEMENT_SET_NO = 999
REV_AT_EPOCH   = 20169
BSTAR          = .18274E-3
MEAN_MOTION_DOT = .419E-5
MEAN_MOTION_DDOT = 0

CCSDS_OMM_VERS = 2.0
CREATION_DATE  = 
ORIGINATOR     = 

OBJECT_NAME    = H-2A R/B
OBJECT_ID      = 2002-056E
CENTER_NAME    = EARTH
REF_FRAME      = TEME
TIME_SYSTEM    = UTC
MEAN_ELEMENT_THEORY = SGP/SGP4

EPOCH          = 2026-01-08T11:44:44.820960
MEAN_MOTION    = 14.33706595
ECCENTRICITY   = .006999
INCLINATION    = 98.3102
RA_OF_ASC_NODE = 331.1868
ARG_OF_PERICENTER = 342.0023
MEAN_ANOMALY   = 126.7667

EPHEMERIS_TYPE = 0
CLASSIFICATION_TYPE = U
NORAD_CAT_ID   = 27601
ELEMENT_SET_NO = 999
REV_AT_EPOCH   = 20548
BSTAR          = .18647E-3
MEAN_MOTION_DOT = .49E-5
MEAN_MOTION_DDOT = 0

CCSDS_OMM_VERS = 2.0
CREATION_DATE  = 
ORIGINATOR     = 

OBJECT_NAME    = CZ-4B R/B
OBJECT_ID      = 2003-049C
CENTER_NAME    = EARTH
REF_FRAME      = TEME
TIME_SYSTEM    = UTC
MEAN_ELEMENT_THEORY = SGP/SGP4

EPOCH          = 2026-01-08T11:39:12.308832
MEAN_MOTION    = 14.54942265
ECCENTRICITY   = .0049203
INCLINATION    = 98.6809
RA_OF_ASC_NODE = 1.0630
ARG_OF_PERICENTER = 56.1791
MEAN_ANOMALY   = 304.4075

EPHEMERIS_TYPE = 0
CLASSIFICATION_TYPE = U
NORAD_CAT_ID   = 28059
ELEMENT_SET_NO = 999
REV_AT_EPOCH   = 17784
BSTAR          = .13773E-3
MEAN_MOTION_DOT = .551E-5
MEAN_MOTION_DDOT = 0

CCSDS_OMM_VERS = 2.0
CREATION_DATE  = 
ORIGINATOR     = 

OBJECT_NAME    = CZ-2C R/B
OBJECT_ID      = 2004-012C
CENTER_NAME    = EARTH
REF_FRAME      = TEME
TIME_SYSTEM    = UTC
MEAN_ELEMENT_THEORY = SGP/SGP4

EPOCH          = 2026-01-08T11:33:30.213216
MEAN_MOTION    = 15.57918932
ECCENTRICITY   = .0016869
INCLINATION    = 97.7368
RA_OF_ASC_NODE = 68.3506
ARG_OF_PERICENTER = 168.8762
MEAN_ANOMALY   = 191.2869

EPHEMERIS_TYPE = 0
CLASSIFICATION_TYPE = U
NORAD_CAT_ID   = 28222
ELEMENT_SET_NO = 999
REV_AT_EPOCH   = 19488
BSTAR          = .59888E-3
MEAN_MOTION_DOT = .4508E-3
MEAN_MOTION_DDOT = 0

CCSDS_OMM_VERS = 2.0
CREATION_DATE  = 
ORIGINATOR     = 

OBJECT_NAME    = SL-16 R/B
OBJECT_ID      = 2004-021B
CENTER_NAME    = EARTH
REF_FRAME      = TEME
TIME_SYSTEM    = UTC
MEAN_ELEMENT_THEORY = SGP/SGP4

EPOCH          = 2026-01-08T10:07:30.590112
MEAN_MOTION    = 14.14590752
ECCENTRICITY   = .0003609
INCLINATION    = 71.0021
RA_OF_ASC_NODE = 358.9689
ARG_OF_PERICENTER = 156.0354
MEAN_ANOMALY   = 204.0937

EPHEMERIS_TYPE = 0
CLASSIFICATION_TYPE = U
NORAD_CAT_ID   = 28353
ELEMENT_SET_NO = 999
REV_AT_EPOCH   = 11431
BSTAR          = .15109E-3
MEAN_MOTION_DOT = .243E-5
MEAN_MOTION_DDOT = 0

CCSDS_OMM_VERS = 2.0
CREATION_DATE  = 
ORIGINATOR     = 

OBJECT_NAME    = CZ-4B R/B
OBJECT_ID      = 2004-035C
CENTER_NAME    = EARTH
REF_FRAME      = TEME
TIME_SYSTEM    = UTC
MEAN_ELEMENT_THEORY = SGP/SGP4

EPOCH          = 2026-01-08T08:27:39.308256
MEAN_MOTION    = 15.27897372
ECCENTRICITY   = .0032833
INCLINATION    = 97.3577
RA_OF_ASC_NODE = 43.3455
ARG_OF_PERICENTER = 179.7868
MEAN_ANOMALY   = 180.3391

EPHEMERIS_TYPE = 0
CLASSIFICATION_TYPE = U
NORAD_CAT_ID   = 28415
ELEMENT_SET_NO = 999
REV_AT_EPOCH   = 17069
BSTAR          = .32866E-3
MEAN_MOTION_DOT = .9019E-4
MEAN_MOTION_DDOT = 0

CCSDS_OMM_VERS = 2.0
CREATION_DATE  = 
ORIGINATOR     = 

OBJECT_NAME    = CZ-2C R/B
OBJECT_ID      = 2004-046B
CENTER_NAME    = EARTH
REF_FRAME      = TEME
TIME_SYSTEM    = UTC
MEAN_ELEMENT_THEORY = SGP/SGP4

EPOCH          = 2026-01-08T09:27:02.205792
MEAN_MOTION    = 14.26962538
ECCENTRICITY   = .0139015
INCLINATION    = 98.2000
RA_OF_ASC_NODE = 287.1176
ARG_OF_PERICENTER = 333.6749
MEAN_ANOMALY   = 25.7413

EPHEMERIS_TYPE = 0
CLASSIFICATION_TYPE = U
NORAD_CAT_ID   = 28480
ELEMENT_SET_NO = 999
REV_AT_EPOCH   = 9990
BSTAR          = .14727E-3
MEAN_MOTION_DOT = .354E-5
MEAN_MOTION_DDOT = 0

CCSDS_OMM_VERS = 2.0
CREATION_DATE  = 
ORIGINATOR     = 

OBJECT_NAME    = ARIANE 5 R/B
OBJECT_ID      = 2004-049H
CENTER_NAME    = EARTH
REF_FRAME      = TEME
TIME_SYSTEM    = UTC
MEAN_ELEMENT_THEORY = SGP/SGP4

EPOCH          = 2026-01-08T11:15:53.890272
MEAN_MOTION    = 14.85104450
ECCENTRICITY   = .008425
INCLINATION    = 98.2540
RA_OF_ASC_NODE = 174.7133
ARG_OF_PERICENTER = 185.4664
MEAN_ANOMALY   = 174.5639

EPHEMERIS_TYPE = 0
CLASSIFICATION_TYPE = U
NORAD_CAT_ID   = 28499
ELEMENT_SET_NO = 999
REV_AT_EPOCH   = 13685
BSTAR          = .18733E-3
MEAN_MOTION_DOT = .1642E-4
MEAN_MOTION_DDOT = 0

CCSDS_OMM_VERS = 2.0
CREATION_DATE  = 
ORIGINATOR     = 

OBJECT_NAME    = CZ-2D R/B
OBJECT_ID      = 2005-024B
CENTER_NAME    = EARTH
REF_FRAME      = TEME
TIME_SYSTEM    = UTC
MEAN_ELEMENT_THEORY = SGP/SGP4

EPOCH          = 2026-01-08T12:11:59.678304
MEAN_MOTION    = 15.55077906
ECCENTRICITY   = .0003422
INCLINATION    = 97.3628
RA_OF_ASC_NODE = 21.6892
ARG_OF_PERICENTER = 220.6868
MEAN_ANOMALY   = 139.4131

EPHEMERIS_TYPE = 0
CLASSIFICATION_TYPE = U
NORAD_CAT_ID   = 28738
ELEMENT_SET_NO = 999
REV_AT_EPOCH   = 13041
BSTAR          = .56933E-3
MEAN_MOTION_DOT = .38309E-3
MEAN_MOTION_DDOT = 0

