IDEFIX & ARIANE 42P R/B 
1 27422U 02021B   26008.43366848  .00000392  00000+0  16551-3 0  9994
2 27422  98.5815 307.7825 0012109  10.4266 349.7165 14.30974958235408
AQUA                    
1 27424U 02022A   26004.96787593  .00001598  00000+0  32997-3 0  9996
2 27424  98.4069 331.2279 0002002  90.2377   0.6092 14.61798176259425
CZ-4B R/B               
1 27432U 02024C   26008.37331657  .00000061  00000+0  54360-4 0  9995
2 27432  98.8957  62.0469 0049994 193.2831 177.9577 14.14534718220718
MIDORI II (ADEOS-II)    
1 27597U 02056A   26008.45851330  .00000419  00000+0  18274-3 0  9996
2 27597  98.7672 326.5602 0001448 127.7302 232.4010 14.29230885201696
H-2A R/B                
1 27601U 02056E   26008.48940765  .00000490  00000+0  18647-3 0  9999
2 27601  98.3102 331.1868 0069990 342.0023 126.7667 14.33706595205485
CZ-4B R/B               
1 28059U 03049C   26008.48555913  .00000551  00000+0  13773-3 0  9990
2 28059  98.6809   1.0630 0049203  56.1791 304.4075 14.54942265177845
CZ-2C R/B               
1 28222U 04012C   26008.48159969  .00045080  00000+0  59888-3 0  9997
2 28222  97.7368  68.3506 0016869 168.8762 191.2869 15.57918932194880
SL-16 R/B               
1 28353U 04021B   26008.42188183  .00000243  00000+0  15109-3 0  9996
2 28353  71.0021 358.9689 0003609 156.0354 204.0937 14.14590752114317
CZ-4B R/B               
1 28415U 04035C   26008.35253829  .00009019  00000+0  32866-3 0  9991
2 28415  97.3577  43.3455 0032833 179.7868 180.3391 15.27897372170698
CZ-2C R/B               
1 28480U 04046B   26008.39377553  .00000354  00000+0  14727-3 0  9999
2 28480  98.2000 287.1176 0139015 333.6749  25.7413 14.26962538 99904
ARIANE 5 R/B            
1 28499U 04049H   26008.46937373  .00001642  00000+0  18733-3 0  9994
2 28499  98.2540 174.7133 0084250 185.4664 174.5639 14.85104450136851
CZ-2D R/B               
1 28738U 05024B   26008.50832961  .00038309  00000+0  56933-3 0  9990
2 28738  97.3628  21.6892 0003422 220.6868 139.4131 15.55077906130412
